OBJECT_NAME,OBJECT_ID,EPOCH,MEAN_MOTION,ECCENTRICITY,INCLINATION,RA_OF_ASC_NODE,ARG_OF_PERICENTER,MEAN_ANOMALY,EPHEMERIS_TYPE,CLASSIFICATION_TYPE,NORAD_CAT_ID,ELEMENT_SET_NO,REV_AT_EPOCH,BSTAR,MEAN_MOTION_DOT,MEAN_MOTION_DDOT
BIRKELAND,2023-001G,2026-06-15T06:17:36.280608,15.40049042,.00083431,97.3350,234.2269,110.7135,249.5006,0,U,55015,999,19205,.20094569E-3,.7955E-4,0
ION SCV-008,2023-001AU,2026-06-15T00:17:34.757376,15.28554213,.00152238,97.5717,262.2934,26.0463,334.1539,0,U,55051,999,19100,.21837574E-3,.6008E-4,0
ION SCV-007,2023-001BD,2026-06-15T03:59:31.420032,14.77551723,.00119725,97.9007,229.2214,349.0761,11.0188,0,U,55060,999,18595,.58382935E-4,.366E-5,0
HUYGENS,2023-001CN,2026-06-15T06:17:43.780992,15.40048818,.0011148,97.3255,233.4593,92.1839,268.0683,0,U,55093,999,19207,.20785785E-3,.8239E-4,0
SHARJAHSAT-1,2023-001CZ,2026-06-15T07:17:50.510112,15.48998836,.00071358,97.3177,235.0438,108.6871,251.5155,0,U,55104,999,19220,.31960384E-3,.1723E-3,0
HORUS 1,2023-025A,2026-06-15T07:31:36.239232,15.23586434,.00024093,97.3469,240.9489,120.4785,239.6691,0,U,55690,999,18376,.19780067E-3,.4663E-4,0
HORUS 2,2023-032A,2026-06-15T06:48:30.284640,15.23409050,.00022591,97.3540,241.7223,107.5349,252.6135,0,U,55844,999,18119,.21502747E-3,.5048E-4,0
GLOBAL-19,2023-041B,2026-06-14T19:49:05.581920,15.37979148,.00092116,42.0000,215.6569,346.7815,13.2782,0,U,55982,999,18156,.29500612E-3,.11033E-3,0
BRO-9,2023-054H,2026-06-15T07:53:34.622880,16.04231512,.00077788,97.2923,84.7085,164.7930,195.3586,0,U,56185,999,17879,.12182814E-2,.788422E-2,.31241999E-3
ION SCV-010,2023-054Q,2026-06-15T06:12:21.360384,15.26182245,.00119684,97.3786,55.7849,204.2082,155.8595,0,U,56192,999,17590,.15042303E-3,.3823E-4,0
TELEOS-2,2023-057C,2026-06-14T18:09:37.394784,14.96393393,.00006581,9.9878,221.8949,347.7625,12.2573,0,U,56310,999,17243,.33675E-7,.688E-5,0
SNIPE 4,2023-072B,2026-06-15T06:25:18.234624,15.42286177,.00045663,97.5246,12.2122,346.8624,13.2503,0,U,56744,999,16981,.4253049E-3,.18239E-3,0
SNIPE 2,2023-072C,2026-06-15T07:34:59.934144,15.46772104,.00043683,97.5239,15.2930,20.9562,339.1865,0,U,56745,999,16995,.44608652E-3,.2229E-3,0
2023-072G,2023-072G,2026-06-15T07:42:07.175232,15.50483008,.0003021,97.4899,14.0993,15.4608,344.6735,0,U,56749,999,17017,.43311244E-3,.24636E-3,0
GEISAT PRECURSOR,2023-084C,2026-06-15T07:52:16.521600,15.34628367,.00051157,97.6221,307.2194,5.1469,354.9825,0,U,56934,999,16724,.17883047E-3,.5917E-4,0
BLACKJACK ACES-3,2023-084U,2026-06-15T06:13:05.916000,15.18453660,.00027186,97.6211,301.4349,41.9408,318.2034,0,U,56950,999,16687,.235357E-3,.4778E-4,0
BLACKJACK ACES-2,2023-084Z,2026-06-15T06:22:00.374304,15.18523099,.00010886,97.6207,301.5258,71.9409,288.1944,0,U,56955,999,16688,.27985212E-3,.5707E-4,0
BLACKJACK ACES-1,2023-084AA,2026-06-15T07:39:36.397728,15.18584439,.0001246,97.6199,301.3541,102.4763,257.6610,0,U,56956,999,11661,.29882815E-3,.611E-4,0
ION SCV-011,2023-084AB,2026-06-15T05:36:30.113568,15.28828889,.00081255,98.1373,353.3320,51.6715,308.5252,0,U,56957,999,16551,.1562362E-3,.4292E-4,0
GHOST-3,2023-084AC,2026-06-15T03:49:33.746304,15.47820941,.00055359,97.6209,314.6222,302.5088,57.5626,0,U,56958,999,16770,.27300635E-3,.14095E-3,0
TOMORROW-R2,2023-084AG,2026-06-14T23:46:07.874688,16.06409640,.00083071,97.6052,329.9053,243.3663,116.6768,0,U,56962,999,16870,.66290639E-3,.491444E-2,.1179894E-3
AFR-1,2023-084AJ,2026-06-15T08:00:48.179808,15.28541350,.00101087,97.6272,302.9798,353.8004,6.3108,0,U,56964,999,16694,.14018888E-3,.3818E-4,0
METEOR-M2 3,2023-091A,2026-06-15T06:31:10.706016,14.24046652,.00042549,98.6090,221.2891,160.4135,199.7209,0,U,57166,999,15424,.20219206E-4,.3E-7,0
UMKA 1 (RS40S),2023-091G,2026-06-15T04:27:34.837632,15.20797606,.00141814,97.5054,224.8905,123.8643,236.3944,0,U,57172,999,16370,.25120761E-3,.5482E-4,0
2023-091H,2023-091H,2026-06-15T05:15:34.555680,15.28599997,.0011265,97.5053,229.3949,118.9892,241.2478,0,U,57173,999,16400,.32985969E-3,.9119E-4,0
2023-091J,2023-091J,2026-06-15T06:31:07.898880,15.13915787,.00141916,97.5057,219.3953,148.9797,211.2275,0,U,57174,999,16334,.17009097E-3,.3021E-4,0
CUBEBEL 2 (EU11S),2023-091K,2026-06-15T05:17:46.710528,15.29109980,.00112768,97.5056,229.4196,120.5871,239.6483,0,U,57175,999,16400,.36103163E-3,.10147E-3,0
SITRO-AIS 5 (KATYS),2023-091L,2026-06-15T05:42:49.236768,15.29419082,.00128028,97.5065,230.1186,109.5363,250.7261,0,U,57176,999,16404,.35512409E-3,.1008E-3,0
ZORKIY-2M 1,2023-091M,2026-06-15T05:42:53.169696,15.20881408,.00147523,97.5094,225.2093,121.2715,238.9968,0,U,57177,999,16370,.29153243E-3,.6391E-4,0
CUBESX-HSE 3 (RS42S),2023-091N,2026-06-15T06:41:17.716992,15.31173436,.00120712,97.5096,231.8415,100.6074,259.6528,0,U,57178,999,16413,.36090753E-3,.10816E-3,0
