BIRKELAND               
1 55015U 23001G   26166.26222547  .00007955  00000+0  20095-3 0  9997
2 55015  97.3350 234.2269 0008343 110.7135 249.5006 15.40049042192051
ION SCV-008             
1 55051U 23001AU  26166.01220784  .00006008  00000+0  21838-3 0  9995
2 55051  97.5717 262.2934 0015223  26.0463 334.1539 15.28554213191001
ION SCV-007             
1 55060U 23001BD  26166.16633588  .00000366  00000+0  58383-4 0  9998
2 55060  97.9007 229.2214 0011972 349.0761  11.0188 14.77551723185951
HUYGENS                 
1 55093U 23001CN  26166.26231228  .00008239  00000+0  20786-3 0  9992
2 55093  97.3255 233.4593 0011148  92.1839 268.0683 15.40048818192072
SHARJAHSAT-1            
1 55104U 23001CZ  26166.30405683  .00017230  00000+0  31960-3 0  9995
2 55104  97.3177 235.0438 0007135 108.6871 251.5155 15.48998836192202
HORUS 1                 
1 55690U 23025A   26166.31361388  .00004663  00000+0  19780-3 0  9997
2 55690  97.3469 240.9489 0002409 120.4785 239.6691 15.23586434183765
HORUS 2                 
1 55844U 23032A   26166.28368385  .00005048  00000+0  21503-3 0  9990
2 55844  97.3540 241.7223 0002259 107.5349 252.6135 15.23409050181197
GLOBAL-19               
1 55982U 23041B   26165.82575905  .00011033  00000+0  29501-3 0  9997
2 55982  42.0000 215.6569 0009211 346.7815  13.2782 15.37979148181566
BRO-9                   
1 56185U 23054H   26166.32887295  .00788422  31242-3  12183-2 0  9997
2 56185  97.2923  84.7085 0007778 164.7930 195.3586 16.04231512178794
ION SCV-010             
1 56192U 23054Q   26166.25858056  .00003823  00000+0  15042-3 0  9997
2 56192  97.3786  55.7849 0011968 204.2082 155.8595 15.26182245175902
TELEOS-2                
1 56310U 23057C   26165.75668281  .00000688  00000+0  33675-7 0  9997
2 56310   9.9878 221.8949 0000658 347.7625  12.2573 14.96393393172433
SNIPE 4                 
1 56744U 23072B   26166.26757216  .00018239  00000+0  42530-3 0  9996
2 56744  97.5246  12.2122 0004566 346.8624  13.2503 15.42286177169817
SNIPE 2                 
1 56745U 23072C   26166.31597146  .00022290  00000+0  44609-3 0  9998
2 56745  97.5239  15.2930 0004368  20.9562 339.1865 15.46772104169951
2023-072G               
1 56749U 23072G   26166.32091638  .00024636  00000+0  43311-3 0  9993
2 56749  97.4899  14.0993 0003021  15.4608 344.6735 15.50483008170177
GEISAT PRECURSOR        
1 56934U 23084C   26166.32796900  .00005917  00000+0  17883-3 0  9992
2 56934  97.6221 307.2194 0005115   5.1469 354.9825 15.34628367167240
BLACKJACK ACES-3        
1 56950U 23084U   26166.25909625  .00004778  00000+0  23536-3 0  9998
2 56950  97.6211 301.4349 0002718  41.9408 318.2034 15.18453660166879
BLACKJACK ACES-2        
1 56955U 23084Z   26166.26528211  .00005707  00000+0  27985-3 0  9997
2 56955  97.6207 301.5258 0001088  71.9409 288.1944 15.18523099166882
BLACKJACK ACES-1        
1 56956U 23084AA  26166.31917127  .00006110  00000+0  29883-3 0  9990
2 56956  97.6199 301.3541 0001246 102.4763 257.6610 15.18584439116617
ION SCV-011             
1 56957U 23084AB  26166.23368187  .00004292  00000+0  15624-3 0  9995
2 56957  98.1373 353.3320 0008125  51.6715 308.5252 15.28828889165517
GHOST-3                 
1 56958U 23084AC  26166.15941836  .00014095  00000+0  27301-3 0  9992
2 56958  97.6209 314.6222 0005535 302.5088  57.5626 15.47820941167705
TOMORROW-R2             
1 56962U 23084AG  26165.99036892  .00491444  11799-3  66291-3 0  9994
2 56962  97.6052 329.9053 0008307 243.3663 116.6768 16.06409640168708
AFR-1                   
1 56964U 23084AJ  26166.33389097  .00003818  00000+0  14019-3 0  9997
2 56964  97.6272 302.9798 0010108 353.8004   6.3108 15.28541350166944
METEOR-M2 3             
1 57166U 23091A   26166.27165169  .00000003  00000+0  20219-4 0  9998
2 57166  98.6090 221.2891 0004254 160.4135 199.7209 14.24046652154246
UMKA 1 (RS40S)          
1 57172U 23091G   26166.18581988  .00005482  00000+0  25121-3 0  9998
2 57172  97.5054 224.8905 0014181 123.8643 236.3944 15.20797606163707
2023-091H               
1 57173U 23091H   26166.21914995  .00009119  00000+0  32986-3 0  9999
2 57173  97.5053 229.3949 0011265 118.9892 241.2478 15.28599997164008
2023-091J               
1 57174U 23091J   26166.27161920  .00003021  00000+0  17009-3 0  9993
2 57174  97.5057 219.3953 0014191 148.9797 211.2275 15.13915787163346
CUBEBEL 2 (EU11S)       
1 57175U 23091K   26166.22067952  .00010147  00000+0  36103-3 0  9992
2 57175  97.5056 229.4196 0011276 120.5871 239.6483 15.29109980164003
SITRO-AIS 5 (KATYS)     
1 57176U 23091L   26166.23806987  .00010080  00000+0  35512-3 0  9992
2 57176  97.5065 230.1186 0012802 109.5363 250.7261 15.29419082164040
ZORKIY-2M 1             
1 57177U 23091M   26166.23811539  .00006391  00000+0  29153-3 0  9996
2 57177  97.5094 225.2093 0014752 121.2715 238.9968 15.20881408163703
CUBESX-HSE 3 (RS42S)    
1 57178U 23091N   26166.27867728  .00010816  00000+0  36091-3 0  9998
2 57178  97.5096 231.8415 0012071 100.6074 259.6528 15.31173436164135
